start=new Date('2022-02-02T00:00:00.000Z').valueOf();
sats=[{"TLE_LINE1":"1 47773U 21017BD  22032.89890334  .00000927  00000-0  81127-4 0  9993","LAUNCH_DATE":"2021-03-04","INCLINATION":"53.0546","EPOCH":"2022-02-01T21:34:25.248576","NORAD_CAT_ID":"47773","RA_OF_ASC_NODE":"100.9730","GP_ID":"195122214","CENTER_NAME":"EARTH","ELEMENT_SET_NO":"999","TIME_SYSTEM":"UTC","APOAPSIS":"548.346","MEAN_MOTION":"15.06393332","RCS_SIZE":"LARGE","REV_AT_EPOCH":"5198","BSTAR":"0.00008112700000","EPHEMERIS_TYPE":"0","CLASSIFICATION_TYPE":"U","OBJECT_TYPE":"PAYLOAD","ECCENTRICITY":"0.00016050","MEAN_ELEMENT_THEORY":"SGP4","ARG_OF_PERICENTER":"64.9280","PERIOD":"95.593","MEAN_MOTION_DDOT":"0.0000000000000","MEAN_MOTION_DOT":"0.00000927","FILE":"3289675","COUNTRY_CODE":"US","DECAY_DATE":null,"TLE_LINE2":"2 47773  53.0546 100.9730 0001605  64.9280 295.1876 15.06393332 51980","OBJECT_ID":"2021-017BD","SEMIMAJOR_AXIS":"6925.369","MEAN_ANOMALY":"295.1876","OBJECT_NAME":"STARLINK-2196","REF_FRAME":"TEME","SITE":"AFETR","PERIAPSIS":"546.122"},{"OBJECT_TYPE":"PAYLOAD","ECCENTRICITY":"0.00015060","CLASSIFICATION_TYPE":"U","EPHEMERIS_TYPE":"0","MEAN_ELEMENT_THEORY":"SGP4","COUNTRY_CODE":"US","FILE":"3289675","MEAN_MOTION_DDOT":"0.0000000000000","PERIOD":"95.592","MEAN_MOTION_DOT":"0.00000821","ARG_OF_PERICENTER":"64.7890","OBJECT_ID":"2021-017BE","TLE_LINE2":"2 47774  53.0553 100.9871 0001506  64.7890 295.3255 15.06406170 51999","DECAY_DATE":null,"MEAN_ANOMALY":"295.3255","SEMIMAJOR_AXIS":"6925.330","REF_FRAME":"TEME","OBJECT_NAME":"STARLINK-2197","PERIAPSIS":"546.152","SITE":"AFETR","LAUNCH_DATE":"2021-03-04","TLE_LINE1":"1 47774U 21017BE  22032.89520994  .00000821  00000-0  73981-4 0  9998","INCLINATION":"53.0553","NORAD_CAT_ID":"47774","EPOCH":"2022-02-01T21:29:06.138816","ELEMENT_SET_NO":"999","CENTER_NAME":"EARTH","GP_ID":"195122464","RA_OF_ASC_NODE":"100.9871","RCS_SIZE":"LARGE","MEAN_MOTION":"15.06406170","APOAPSIS":"548.238","TIME_SYSTEM":"UTC","BSTAR":"0.00007398100000","REV_AT_EPOCH":"5199"},{"CLASSIFICATION_TYPE":"U","EPHEMERIS_TYPE":"0","OBJECT_TYPE":"PAYLOAD","ECCENTRICITY":"0.00014980","MEAN_ELEMENT_THEORY":"SGP4","PERIOD":"95.592","MEAN_MOTION_DDOT":"0.0000000000000","MEAN_MOTION_DOT":"0.00000582","ARG_OF_PERICENTER":"67.0717","FILE":"3289675","COUNTRY_CODE":"US","DECAY_DATE":null,"TLE_LINE2":"2 47775  53.0537 101.8395 0001498  67.0717 293.0429 15.06402820 52017","OBJECT_ID":"2021-017BF","SEMIMAJOR_AXIS":"6925.340","MEAN_ANOMALY":"293.0429","OBJECT_NAME":"STARLINK-2198","REF_FRAME":"TEME","SITE":"AFETR","PERIAPSIS":"546.167","TLE_LINE1":"1 47775U 21017BF  22032.70722724  .00000582  00000-0  57960-4 0  9997","LAUNCH_DATE":"2021-03-04","INCLINATION":"53.0537","EPOCH":"2022-02-01T16:58:24.433536","NORAD_CAT_ID":"47775","GP_ID":"195123715","CENTER_NAME":"EARTH","RA_OF_ASC_NODE":"101.8395","ELEMENT_SET_NO":"999","APOAPSIS":"548.242","TIME_SYSTEM":"UTC","RCS_SIZE":"LARGE","MEAN_MOTION":"15.06402820","REV_AT_EPOCH":"5201","BSTAR":"0.00005796000000"},{"CLASSIFICATION_TYPE":"U","EPHEMERIS_TYPE":"0","OBJECT_TYPE":"PAYLOAD","ECCENTRICITY":"0.00017310","MEAN_ELEMENT_THEORY":"SGP4","MEAN_MOTION_DOT":"-0.00006493","PERIOD":"95.596","MEAN_MOTION_DDOT":"0.0000000000000","ARG_OF_PERICENTER":"60.4031","FILE":"3289675","COUNTRY_CODE":"US","DECAY_DATE":null,"TLE_LINE2":"2 47776  53.0543  91.1207 0001731  60.4031 299.7131 15.06345248 52141","OBJECT_ID":"2021-017BG","SEMIMAJOR_AXIS":"6925.516","MEAN_ANOMALY":"299.7131","OBJECT_NAME":"STARLINK-2209","REF_FRAME":"TEME","SITE":"AFETR","PERIAPSIS":"546.183","TLE_LINE1":"1 47776U 21017BG  22032.86670620 -.00006493  00000-0 -41802-3 0  9998","LAUNCH_DATE":"2021-03-04","INCLINATION":"53.0543","EPOCH":"2022-02-01T20:48:03.415680","NORAD_CAT_ID":"47776","CENTER_NAME":"EARTH","GP_ID":"195123458","RA_OF_ASC_NODE":"91.1207","ELEMENT_SET_NO":"999","TIME_SYSTEM":"UTC","APOAPSIS":"548.580","RCS_SIZE":"LARGE","MEAN_MOTION":"15.06345248","REV_AT_EPOCH":"5214","BSTAR":"-0.00041802000000"},{"RCS_SIZE":"LARGE","MEAN_MOTION":"15.06407928","TIME_SYSTEM":"UTC","APOAPSIS":"548.245","ELEMENT_SET_NO":"999","GP_ID":"195122714","RA_OF_ASC_NODE":"91.1124","CENTER_NAME":"EARTH","BSTAR":"0.00022719000000","REV_AT_EPOCH":"5214","LAUNCH_DATE":"2021-03-04","TLE_LINE1":"1 47777U 21017BH  22032.87033266  .00003105  00000-0  22719-3 0  9990","NORAD_CAT_ID":"47777","EPOCH":"2022-02-01T20:53:16.741824","INCLINATION":"53.0538","REF_FRAME":"TEME","OBJECT_NAME":"STARLINK-2210","MEAN_ANOMALY":"301.6644","SEMIMAJOR_AXIS":"6925.324","PERIAPSIS":"546.134","SITE":"AFETR","MEAN_ELEMENT_THEORY":"SGP4","ECCENTRICITY":"0.00015240","OBJECT_TYPE":"PAYLOAD","CLASSIFICATION_TYPE":"U","EPHEMERIS_TYPE":"0","OBJECT_ID":"2021-017BH","TLE_LINE2":"2 47777  53.0538  91.1124 0001524  58.4494 301.6644 15.06407928 52140","DECAY_DATE":null,"COUNTRY_CODE":"US","FILE":"3289675","PERIOD":"95.592","MEAN_MOTION_DDOT":"0.0000000000000","ARG_OF_PERICENTER":"58.4494","MEAN_MOTION_DOT":"0.00003105"},{"NORAD_CAT_ID":"47778","EPOCH":"2022-02-01T12:07:48.547200","INCLINATION":"53.0470","LAUNCH_DATE":"2021-03-04","TLE_LINE1":"1 47778U 21017BJ  22032.50542300  .00004124  00000-0  29551-3 0  9998","BSTAR":"0.00029551000000","REV_AT_EPOCH":"5144","RCS_SIZE":"LARGE","MEAN_MOTION":"15.06411270","APOAPSIS":"548.229","TIME_SYSTEM":"UTC","ELEMENT_SET_NO":"999","GP_ID":"195099961","CENTER_NAME":"EARTH","RA_OF_ASC_NODE":"92.7597","OBJECT_ID":"2021-017BJ","TLE_LINE2":"2 47778  53.0470  92.7597 0001516  74.2115 285.9041 15.06411270 51446","DECAY_DATE":null,"COUNTRY_CODE":"US","FILE":"3289595","PERIOD":"95.591","MEAN_MOTION_DDOT":"0.0000000000000","ARG_OF_PERICENTER":"74.2115","MEAN_MOTION_DOT":"0.00004124","MEAN_ELEMENT_THEORY":"SGP4","OBJECT_TYPE":"PAYLOAD","ECCENTRICITY":"0.00015160","CLASSIFICATION_TYPE":"U","EPHEMERIS_TYPE":"0","PERIAPSIS":"546.129","SITE":"AFETR","REF_FRAME":"TEME","OBJECT_NAME":"STARLINK-2211","MEAN_ANOMALY":"285.9041","SEMIMAJOR_AXIS":"6925.314"},{"RCS_SIZE":"LARGE","MEAN_MOTION":"15.14259578","APOAPSIS":"523.866","TIME_SYSTEM":"UTC","ELEMENT_SET_NO":"999","CENTER_NAME":"EARTH","GP_ID":"195123216","RA_OF_ASC_NODE":"87.7231","BSTAR":"0.00076851000000","REV_AT_EPOCH":"5219","LAUNCH_DATE":"2021-03-04","TLE_LINE1":"1 47779U 21017BK  22032.85531527  .00013943  00000-0  76851-3 0  9990","NORAD_CAT_ID":"47779","EPOCH":"2022-02-01T20:31:39.239328","INCLINATION":"53.0545","REF_FRAME":"TEME","OBJECT_NAME":"STARLINK-2212","MEAN_ANOMALY":"257.4523","SEMIMAJOR_AXIS":"6901.364","PERIAPSIS":"522.592","SITE":"AFETR","MEAN_ELEMENT_THEORY":"SGP4","ECCENTRICITY":"0.00009230","OBJECT_TYPE":"PAYLOAD","EPHEMERIS_TYPE":"0","CLASSIFICATION_TYPE":"U","OBJECT_ID":"2021-017BK","DECAY_DATE":null,"TLE_LINE2":"2 47779  53.0545  87.7231 0000923 102.6573 257.4523 15.14259578 52196","FILE":"3289675","COUNTRY_CODE":"US","MEAN_MOTION_DDOT":"0.0000000000000","PERIOD":"95.096","MEAN_MOTION_DOT":"0.00013943","ARG_OF_PERICENTER":"102.6573"},{"OBJECT_TYPE":"PAYLOAD","ECCENTRICITY":"0.00016500","CLASSIFICATION_TYPE":"U","EPHEMERIS_TYPE":"0","MEAN_ELEMENT_THEORY":"SGP4","FILE":"3289675","COUNTRY_CODE":"US","PERIOD":"95.592","MEAN_MOTION_DDOT":"0.0000000000000","MEAN_MOTION_DOT":"0.00002980","ARG_OF_PERICENTER":"62.8692","OBJECT_ID":"2021-017BL","DECAY_DATE":null,"TLE_LINE2":"2 47780  53.0490  91.2180 0001650  62.8692 297.2465 15.06397415 52176","MEAN_ANOMALY":"297.2465","SEMIMAJOR_AXIS":"6925.356","REF_FRAME":"TEME","OBJECT_NAME":"STARLINK-2213","PERIAPSIS":"546.079","SITE":"AFETR","LAUNCH_DATE":"2021-03-04","TLE_LINE1":"1 47780U 21017BL  22032.86296141  .00002980  00000-0  21890-3 0  9995","INCLINATION":"53.0490","NORAD_CAT_ID":"47780","EPOCH":"2022-02-01T20:42:39.865824","ELEMENT_SET_NO":"999","RA_OF_ASC_NODE":"91.2180","GP_ID":"195123958","CENTER_NAME":"EARTH","RCS_SIZE":"LARGE","MEAN_MOTION":"15.06397415","APOAPSIS":"548.364","TIME_SYSTEM":"UTC","BSTAR":"0.00021890000000","REV_AT_EPOCH":"5217"},{"FILE":"3289675","COUNTRY_CODE":"US","ARG_OF_PERICENTER":"68.7950","PERIOD":"95.592","MEAN_MOTION_DDOT":"0.0000000000000","MEAN_MOTION_DOT":"0.00000673","OBJECT_ID":"2021-017BM","DECAY_DATE":null,"TLE_LINE2":"2 47781  53.0560  90.9988 0001402  68.7950 291.3188 15.06401279 52131","OBJECT_TYPE":"PAYLOAD","ECCENTRICITY":"0.00014020","EPHEMERIS_TYPE":"0","CLASSIFICATION_TYPE":"U","MEAN_ELEMENT_THEORY":"SGP4","PERIAPSIS":"546.239","SITE":"AFETR","MEAN_ANOMALY":"291.3188","SEMIMAJOR_AXIS":"6925.345","REF_FRAME":"TEME","OBJECT_NAME":"STARLINK-2223","INCLINATION":"53.0560","NORAD_CAT_ID":"47781","EPOCH":"2022-02-01T21:30:25.795296","LAUNCH_DATE":"2021-03-04","TLE_LINE1":"1 47781U 21017BM  22032.89613189  .00000673  00000-0  64055-4 0  9992","BSTAR":"0.00006405500000","REV_AT_EPOCH":"5213","ELEMENT_SET_NO":"999","CENTER_NAME":"EARTH","GP_ID":"195122215","RA_OF_ASC_NODE":"90.9988","MEAN_MOTION":"15.06401279","RCS_SIZE":"LARGE","APOAPSIS":"548.181","TIME_SYSTEM":"UTC"},{"TIME_SYSTEM":"UTC","APOAPSIS":"548.251","RCS_SIZE":"LARGE","MEAN_MOTION":"15.06396650","GP_ID":"195122465","RA_OF_ASC_NODE":"132.1002","CENTER_NAME":"EARTH","ELEMENT_SET_NO":"999","REV_AT_EPOCH":"5095","BSTAR":"0.00006539200000","TLE_LINE1":"1 47787U 21018A   22032.64917771  .00000693  00000-0  65392-4 0  9993","LAUNCH_DATE":"2021-03-11","EPOCH":"2022-02-01T15:34:48.954144","NORAD_CAT_ID":"47787","INCLINATION":"53.0540","OBJECT_NAME":"STARLINK-2257","REF_FRAME":"TEME","SEMIMAJOR_AXIS":"6925.359","MEAN_ANOMALY":"294.4306","SITE":"AFETR","PERIAPSIS":"546.197","MEAN_ELEMENT_THEORY":"SGP4","CLASSIFICATION_TYPE":"U","EPHEMERIS_TYPE":"0","ECCENTRICITY":"0.00014830","OBJECT_TYPE":"PAYLOAD","DECAY_DATE":null,"TLE_LINE2":"2 47787  53.0540 132.1002 0001483  65.6837 294.4306 15.06396650 50950","OBJECT_ID":"2021-018A","PERIOD":"95.592","MEAN_MOTION_DDOT":"0.0000000000000","ARG_OF_PERICENTER":"65.6837","MEAN_MOTION_DOT":"0.00000693","FILE":"3289675","COUNTRY_CODE":"US"}];
